{
  "type": "FeatureCollection",
  "features": [
    {
      "type": "Feature",
      "properties": {
        "norad_id": 41599,
        "name": "CARTOSAT-2C",
        "group": "resource",
        "lat": 58.71023484609475,
        "lon": -117.52061384751292,
        "alt_km": 500.90066817715524,
        "timestamp": "2025-12-18T19:29:52.200430+00:00",
        "meta_object_name": "CARTOSAT-2C",
        "meta_object_id": "2016-040A",
        "meta_epoch": "2025-12-18T07:54:17.300160",
        "meta_mean_motion": 15.19162963,
        "meta_eccentricity": 0.0011237,
        "meta_inclination": 97.4762,
        "meta_ra_of_asc_node": 49.5229,
        "meta_arg_of_pericenter": 45.6567,
        "meta_mean_anomaly": 314.5586,
        "meta_ephemeris_type": 0,
        "meta_classification_type": "U",
        "meta_norad_cat_id": 41599,
        "meta_element_set_no": 999,
        "meta_rev_at_epoch": 52625,
        "meta_bstar": 0.00013217346,
        "meta_mean_motion_dot": 2.714e-05,
        "meta_mean_motion_ddot": 0,
        "tle_line1": "1 41599U 16040A   25352.32936690  .00002714  00000+0  13217-3 0  9994",
        "tle_line2": "2 41599  97.4762  49.5229 0011237  45.6567 314.5586 15.19162963526258"
      },
      "geometry": {
        "type": "Point",
        "coordinates": [
          -117.52061384751292,
          58.71023484609475
        ]
      }
    },
    {
      "type": "Feature",
      "properties": {
        "norad_id": 41601,
        "name": "SKYSAT-C1",
        "group": "resource",
        "lat": 70.46560114874934,
        "lon": -130.3088426316649,
        "alt_km": 461.45651034495495,
        "timestamp": "2025-12-18T19:29:52.200440+00:00",
        "meta_object_name": "SKYSAT-C1",
        "meta_object_id": "2016-040C",
        "meta_epoch": "2025-12-18T01:47:29.157792",
        "meta_mean_motion": 15.32685603,
        "meta_eccentricity": 0.00017471,
        "meta_inclination": 96.9819,
        "meta_ra_of_asc_node": 28.7879,
        "meta_arg_of_pericenter": 357.802,
        "meta_mean_anomaly": 2.3215,
        "meta_ephemeris_type": 0,
        "meta_classification_type": "U",
        "meta_norad_cat_id": 41601,
        "meta_element_set_no": 999,
        "meta_rev_at_epoch": 53009,
        "meta_bstar": 0.00024690976,
        "meta_mean_motion_dot": 7.722e-05,
        "meta_mean_motion_ddot": 0,
        "tle_line1": "1 41601U 16040C   25352.07464303  .00007722  00000+0  24691-3 0  9999",
        "tle_line2": "2 41601  96.9819  28.7879 0001747 357.8020   2.3215 15.32685603530090"
      },
      "geometry": {
        "type": "Point",
        "coordinates": [
          -130.3088426316649,
          70.46560114874934
        ]
      }
    },
    {
      "type": "Feature",
      "properties": {
        "norad_id": 41603,
        "name": "LAPAN-A3",
        "group": "resource",
        "lat": -48.18489464926423,
        "lon": 162.09016409027757,
        "alt_km": 476.9703561202441,
        "timestamp": "2025-12-18T19:29:52.200451+00:00",
        "meta_object_name": "LAPAN-A3",
        "meta_object_id": "2016-040E",
        "meta_epoch": "2025-12-18T07:31:33.023424",
        "meta_mean_motion": 15.3159702,
        "meta_eccentricity": 0.0009101,
        "meta_inclination": 97.1423,
        "meta_ra_of_asc_node": 349.6672,
        "meta_arg_of_pericenter": 311.4473,
        "meta_mean_anomaly": 48.5987,
        "meta_ephemeris_type": 0,
        "meta_classification_type": "U",
        "meta_norad_cat_id": 41603,
        "meta_element_set_no": 999,
        "meta_rev_at_epoch": 52711,
        "meta_bstar": 0.00011733136,
        "meta_mean_motion_dot": 3.509e-05,
        "meta_mean_motion_ddot": 0,
        "tle_line1": "1 41603U 16040E   25352.31357666  .00003509  00000+0  11733-3 0  9993",
        "tle_line2": "2 41603  97.1423 349.6672 0009101 311.4473  48.5987 15.31597020527113"
      },
      "geometry": {
        "type": "Point",
        "coordinates": [
          162.09016409027757,
          -48.18489464926423
        ]
      }
    },
    {
      "type": "Feature",
      "properties": {
        "norad_id": 41604,
        "name": "BIROS",
        "group": "resource",
        "lat": -82.23797252572365,
        "lon": 138.95151560231355,
        "alt_km": 305.77686892855763,
        "timestamp": "2025-12-18T19:29:52.200461+00:00",
        "meta_object_name": "BIROS",
        "meta_object_id": "2016-040F",
        "meta_epoch": "2025-12-18T01:47:05.930016",
        "meta_mean_motion": 15.91743034,
        "meta_eccentricity": 0.00037123,
        "meta_inclination": 97.068,
        "meta_ra_of_asc_node": 23.7286,
        "meta_arg_of_pericenter": 135.4768,
        "meta_mean_anomaly": 224.6806,
        "meta_ephemeris_type": 0,
        "meta_classification_type": "U",
        "meta_norad_cat_id": 41604,
        "meta_element_set_no": 999,
        "meta_rev_at_epoch": 52957,
        "meta_bstar": 0.00054395156,
        "meta_mean_motion_dot": 0.0017616,
        "meta_mean_motion_ddot": 1.3396954e-05,
        "tle_line1": "1 41604U 16040F   25352.07437419  .00176160  13397-4  54395-3 0  9995",
        "tle_line2": "2 41604  97.0680  23.7286 0003712 135.4768 224.6806 15.91743034529575"
      },
      "geometry": {
        "type": "Point",
        "coordinates": [
          138.95151560231355,
          -82.23797252572365
        ]
      }
    },
    {
      "type": "Feature",
      "properties": {
        "norad_id": 41727,
        "name": "GAOFEN-3",
        "group": "resource",
        "lat": -35.45526201869707,
        "lon": 172.26397006757304,
        "alt_km": 758.3011491112093,
        "timestamp": "2025-12-18T19:29:52.200471+00:00",
        "meta_object_name": "GAOFEN-3",
        "meta_object_id": "2016-049A",
        "meta_epoch": "2025-12-18T06:50:41.423424",
        "meta_mean_motion": 14.42214682,
        "meta_eccentricity": 0.0001273,
        "meta_inclination": 98.4035,
        "meta_ra_of_asc_node": 357.7875,
        "meta_arg_of_pericenter": 57.4531,
        "meta_mean_anomaly": 302.6782,
        "meta_ephemeris_type": 0,
        "meta_classification_type": "U",
        "meta_norad_cat_id": 41727,
        "meta_element_set_no": 999,
        "meta_rev_at_epoch": 49257,
        "meta_bstar": -1.13878e-05,
        "meta_mean_motion_dot": -8.1e-07,
        "meta_mean_motion_ddot": 0,
        "tle_line1": "1 41727U 16049A   25352.28520166 -.00000081  00000+0 -11388-4 0  9993",
        "tle_line2": "2 41727  98.4035 357.7875 0001273  57.4531 302.6782 14.42214682492571"
      },
      "geometry": {
        "type": "Point",
        "coordinates": [
          172.26397006757304,
          -35.45526201869707
        ]
      }
    },
    {
      "type": "Feature",
      "properties": {
        "norad_id": 41771,
        "name": "SKYSAT-C4",
        "group": "resource",
        "lat": -73.53737778075654,
        "lon": 173.37426606242727,
        "alt_km": 447.13343897349205,
        "timestamp": "2025-12-18T19:29:52.200481+00:00",
        "meta_object_name": "SKYSAT-C4",
        "meta_object_id": "2016-058B",
        "meta_epoch": "2025-12-18T01:16:05.728512",
        "meta_mean_motion": 15.42399343,
        "meta_eccentricity": 0.00019805,
        "meta_inclination": 96.9368,
        "meta_ra_of_asc_node": 16.9828,
        "meta_arg_of_pericenter": 130.8433,
        "meta_mean_anomaly": 229.2988,
        "meta_ephemeris_type": 0,
        "meta_classification_type": "U",
        "meta_norad_cat_id": 41771,
        "meta_element_set_no": 999,
        "meta_rev_at_epoch": 51749,
        "meta_bstar": 0.00027833369,
        "meta_mean_motion_dot": 0.00011948,
        "meta_mean_motion_ddot": 0,
        "tle_line1": "1 41771U 16058B   25352.05284408  .00011948  00000+0  27833-3 0  9996",
        "tle_line2": "2 41771  96.9368  16.9828 0001980 130.8433 229.2988 15.42399343517496"
      },
      "geometry": {
        "type": "Point",
        "coordinates": [
          173.37426606242727,
          -73.53737778075654
        ]
      }
    },
    {
      "type": "Feature",
      "properties": {
        "norad_id": 41772,
        "name": "SKYSAT-C5",
        "group": "resource",
        "lat": -9.472111703418442,
        "lon": 37.49869890170079,
        "alt_km": 467.9993179764497,
        "timestamp": "2025-12-18T19:29:52.200491+00:00",
        "meta_object_name": "SKYSAT-C5",
        "meta_object_id": "2016-058C",
        "meta_epoch": "2025-12-18T02:19:04.577664",
        "meta_mean_motion": 15.33970386,
        "meta_eccentricity": 0.00037557,
        "meta_inclination": 97.0755,
        "meta_ra_of_asc_node": 35.6253,
        "meta_arg_of_pericenter": 267.8506,
        "meta_mean_anomaly": 92.2307,
        "meta_ephemeris_type": 0,
        "meta_classification_type": "U",
        "meta_norad_cat_id": 41772,
        "meta_element_set_no": 999,
        "meta_rev_at_epoch": 51598,
        "meta_bstar": 0.00023286451,
        "meta_mean_motion_dot": 7.58e-05,
        "meta_mean_motion_ddot": 0,
        "tle_line1": "1 41772U 16058C   25352.09658076  .00007580  00000+0  23286-3 0  9992",
        "tle_line2": "2 41772  97.0755  35.6253 0003755 267.8506  92.2307 15.33970386515980"
      },
      "geometry": {
        "type": "Point",
        "coordinates": [
          37.49869890170079,
          -9.472111703418442
        ]
      }
    }
  ]
}